NORAD_CAT_ID,OBJECT_NAME,OBJECT_TYPE,EPOCH,MEAN_MOTION,ECCENTRICITY,INCLINATION,RA_OF_ASC_NODE,ARG_OF_PERICENTER,MEAN_ANOMALY,BSTAR,MEAN_MOTION_DOT,MEAN_MOTION_DDOT,TLE_LINE0,TLE_LINE1,TLE_LINE2,SEMIMAJOR_AXIS,PERIOD,APOGEE,PERIGEE,DECAYED
49757.0,STARLINK-3197,PAYLOAD,2023-10-30 11:50:39,15.08829508,0.0001578,53.2182,45.1931,99.3037,260.8134,4.0304e-05,3.53e-06,0.0,0 STARLINK-3197,1 49757U 21115AK  23303.49351268  .00000353  00000-0  40304-4 0  9997,2 49757  53.2182  45.1931 0001578  99.3037 260.8134 15.08829508106771,6917.912,95.438,540.869,538.686,0.0
49757.0,STARLINK-3197,PAYLOAD,2023-10-30 16:36:48,15.08843087,0.000138,53.2181,44.2974,101.6896,258.4251,0.00010928,1.452e-05,0.0,0 STARLINK-3197,1 49757U 21115AK  23303.69222625  .00001452  00000-0  10928-3 0  9992,2 49757  53.2181  44.2974 0001380 101.6896 258.4251 15.08843087106803,6917.871,95.437,540.691,538.781,0.0
49757.0,STARLINK-3197,PAYLOAD,2023-10-31 11:41:26,15.08831142,0.0001439,53.217,40.7317,91.6047,268.511,-0.0001311,-2.373e-05,0.0,0 STARLINK-3197,1 49757U 21115AK  23304.48711592 -.00002373  00000-0 -13110-3 0  9997,2 49757  53.2170  40.7317 0001439  91.6047 268.5110 15.08831142106922,6917.907,95.438,540.768,538.777,0.0
49757.0,STARLINK-3197,PAYLOAD,2023-10-31 13:16:49,15.08841718,0.0001295,53.2192,40.4348,84.9083,275.2057,-0.00013271,-2.399e-05,0.0,0 STARLINK-3197,1 49757U 21115AK  23304.55335147 -.00002399  00000-0 -13271-3 0  9999,2 49757  53.2192  40.4348 0001295  84.9083 275.2057 15.08841718105825,6917.875,95.437,540.636,538.844,0.0
49757.0,STARLINK-3197,PAYLOAD,2023-11-01 13:07:36,15.0885363,0.0001248,53.2187,35.9728,87.029,273.0845,0.00039831,6.059e-05,0.0,0 STARLINK-3197,1 49757U 21115AK  23305.54694911  .00006059  00000-0  39831-3 0  9991,2 49757  53.2187  35.9728 0001248  87.0290 273.0845 15.08853630105975,6917.839,95.437,540.567,538.84,0.0
49757.0,STARLINK-3197,PAYLOAD,2023-11-01 16:18:22,15.08856021,0.0001206,53.2187,35.3782,86.9613,273.1517,0.00043598,6.661e-05,0.0,0 STARLINK-3197,1 49757U 21115AK  23305.67943037  .00006661  00000-0  43598-3 0  9995,2 49757  53.2187  35.3782 0001206  86.9613 273.1517 15.08856021107101,6917.831,95.437,540.531,538.862,0.0
49757.0,STARLINK-3197,PAYLOAD,2023-11-02 05:01:28,15.08834083,0.0001643,53.2193,33.0006,87.5905,272.5275,0.00011974,1.618e-05,0.0,0 STARLINK-3197,1 49757U 21115AK  23306.20936139  .00001618  00000-0  11974-3 0  9990,2 49757  53.2193  33.0006 0001643  87.5905 272.5275 15.08834083107184,6917.898,95.438,540.9,538.627,0.0
49757.0,STARLINK-3197,PAYLOAD,2023-11-02 12:58:23,15.08849505,0.0001295,53.2185,31.5127,88.2175,271.8965,0.00018993,2.737e-05,0.0,0 STARLINK-3197,1 49757U 21115AK  23306.54055168  .00002737  00000-0  18993-3 0  9992,2 49757  53.2185  31.5127 0001295  88.2175 271.8965 15.08849505107231,6917.851,95.437,540.612,538.82,0.0
49757.0,STARLINK-3197,PAYLOAD,2023-11-02 22:30:42,15.08847957,0.0001591,53.2187,29.7297,54.6074,305.5067,3.4774e-06,-2.33e-06,0.0,0 STARLINK-3197,1 49757U 21115AK  23306.93798973 -.00000233  00000-0  34774-5 0  9990,2 49757  53.2187  29.7297 0001591  54.6074 305.5067 15.08847957106184,6917.856,95.437,540.822,538.62,0.0
49757.0,STARLINK-3197,PAYLOAD,2023-11-03 04:52:15,15.08839863,0.0001873,53.2193,28.5399,83.3042,276.8163,-0.00011625,-2.138e-05,0.0,0 STARLINK-3197,1 49757U 21115AK  23307.20295589 -.00002138  00000-0 -11625-3 0  9991,2 49757  53.2193  28.5399 0001873  83.3042 276.8163 15.08839863107330,6917.881,95.438,541.042,538.45,0.0
49757.0,STARLINK-3197,PAYLOAD,2023-11-03 12:49:11,15.08840189,0.0001695,53.2192,27.0546,72.1317,287.986,-7.5277e-05,-1.486e-05,0.0,0 STARLINK-3197,1 49757U 21115AK  23307.53415623 -.00001486  00000-0 -75277-4 0  9999,2 49757  53.2192  27.0546 0001695  72.1317 287.9860 15.08840189106272,6917.88,95.438,540.917,538.572,0.0
49757.0,STARLINK-3197,PAYLOAD,2023-11-04 11:04:35,15.08832066,0.0001729,53.2183,22.8885,64.8124,295.3047,-4.8175e-05,-1.055e-05,0.0,0 STARLINK-3197,1 49757U 21115AK  23308.46152622 -.00001055  00000-0 -48175-4 0  9998,2 49757  53.2183  22.8885 0001729  64.8124 295.3047 15.08832066107527,6917.905,95.438,540.966,538.574,0.0
49757.0,STARLINK-3197,PAYLOAD,2023-11-04 12:39:58,15.08834016,0.0001779,53.2189,22.5931,66.3914,293.7264,7.1814e-06,-1.74e-06,0.0,0 STARLINK-3197,1 49757U 21115AK  23308.52776604 -.00000174  00000-0  71814-5 0  9994,2 49757  53.2189  22.5931 0001779  66.3914 293.7264 15.08834016106429,6917.899,95.438,540.994,538.533,0.0
49757.0,STARLINK-3197,PAYLOAD,2023-11-04 22:12:17,15.08843643,0.0001545,53.2186,20.8096,94.3225,265.7944,9.6528e-05,1.249e-05,0.0,0 STARLINK-3197,1 49757U 21115AK  23308.92520087  .00001249  00000-0  96528-4 0  9991,2 49757  53.2186  20.8096 0001545  94.3225 265.7944 15.08843643106482,6917.869,95.437,540.803,538.665,0.0
49757.0,STARLINK-3197,PAYLOAD,2023-11-05 04:33:49,15.08846726,0.0001578,53.2183,19.6208,88.285,271.8322,0.0003514,5.31e-05,0.0,0 STARLINK-3197,1 49757U 21115AK  23309.19016158  .00005310  00000-0  35140-3 0  9995,2 49757  53.2183  19.6208 0001578  88.2850 271.8322 15.08846726107633,6917.86,95.437,540.816,538.633,0.0
49757.0,STARLINK-3197,PAYLOAD,2023-11-05 10:55:21,15.08865019,0.0001417,53.2163,18.4321,86.9324,273.183,0.00071921,0.00011185,0.0,0 STARLINK-3197,1 49757U 21115AK  23309.45511518  .00011185  00000-0  71921-3 0  9998,2 49757  53.2163  18.4321 0001417  86.9324 273.1830 15.08865019107676,6917.804,95.436,540.649,538.689,0.0
49757.0,STARLINK-3197,PAYLOAD,2023-11-05 12:30:45,15.0887148,0.0001689,53.2179,18.1329,80.9576,279.1607,0.0009074,0.00014195,0.0,0 STARLINK-3197,1 49757U 21115AK  23309.52135419  .00014195  00000-0  90740-3 0  9992,2 49757  53.2179  18.1329 0001689  80.9576 279.1607 15.08871480106577,6917.784,95.436,540.818,538.481,0.0
49757.0,STARLINK-3197,PAYLOAD,2023-11-05 22:03:03,15.08863807,0.0001867,53.2178,16.3488,77.2258,282.8943,0.00062572,9.691e-05,0.0,0 STARLINK-3197,1 49757U 21115AK  23309.91879465  .00009691  00000-0  62572-3 0  9998,2 49757  53.2178  16.3488 0001867  77.2258 282.8943 15.08863807106631,6917.808,95.436,540.964,538.381,0.0
49757.0,STARLINK-3197,PAYLOAD,2023-11-06 04:24:36,15.08867924,0.0002027,53.2158,15.1615,72.2695,287.8519,0.00058254,9.002e-05,0.0,0 STARLINK-3197,1 49757U 21115AK  23310.18375073  .00009002  00000-0  58254-3 0  9993,2 49757  53.2158  15.1615 0002027  72.2695 287.8519 15.08867924107782,6917.795,95.436,541.062,538.258,0.0
49757.0,STARLINK-3197,PAYLOAD,2023-11-06 10:46:08,15.0887599,0.0001678,53.2163,13.9704,75.3238,284.794,0.00083743,0.00013078,0.0,0 STARLINK-3197,1 49757U 21115AK  23310.44870380  .00013078  00000-0  83743-3 0  9992,2 49757  53.2163  13.9704 0001678  75.3238 284.7940 15.08875990106719,6917.77,95.435,540.796,538.475,0.0
49757.0,STARLINK-3197,PAYLOAD,2023-11-06 21:53:50,15.0885341,0.000197,53.2174,11.8898,74.415,285.7059,0.00051953,7.993e-05,0.0,0 STARLINK-3197,1 49757U 21115AK  23310.91238709  .00007993  00000-0  51953-3 0  9994,2 49757  53.2174  11.8898 0001970  74.4150 285.7059 15.08853410106782,6917.839,95.437,541.067,538.342,0.0
49757.0,STARLINK-3197,PAYLOAD,2023-11-07 10:36:56,15.08799622,0.0001434,53.2181,9.5107,88.8552,271.2604,0.0018246,0.00028838,0.0,0 STARLINK-3197,1 49757U 21115AK  23311.44232452  .00028838  00000-0  18246-2 0  9990,2 49757  53.2181   9.5107 0001434  88.8552 271.2604 15.08799622107979,6918.004,95.44,540.861,538.877,0.0
49757.0,STARLINK-3197,PAYLOAD,2023-11-08 08:52:21,15.08852583,0.0001505,53.2182,5.3475,85.331,274.7854,0.001963,0.00031102,0.0,0 STARLINK-3197,1 49757U 21115AK  23312.36969504  .00031102  00000-0  19630-2 0  9993,2 49757  53.2182   5.3475 0001505  85.3310 274.7854 15.08852583107000,6917.842,95.437,540.748,538.666,0.0
49757.0,STARLINK-3197,PAYLOAD,2023-11-09 03:56:58,15.08868114,0.000133,53.2182,1.779,89.9616,270.1529,0.0015419,0.00024355,0.0,0 STARLINK-3197,1 49757U 21115AK  23313.16457004  .00024355  00000-0  15419-2 0  9992,2 49757  53.2182   1.7790 0001330  89.9616 270.1529 15.08868114108237,6917.794,95.436,540.58,538.739,0.0
49757.0,STARLINK-3197,PAYLOAD,2023-11-09 10:18:31,15.08873319,0.0001455,53.2175,0.5913,90.5207,269.5952,0.0014417,0.00022752,0.0,0 STARLINK-3197,1 49757U 21115AK  23313.42952626  .00022752  00000-0  14417-2 0  9997,2 49757  53.2175   0.5913 0001455  90.5207 269.5952 15.08873319107161,6917.779,95.435,540.65,538.637,0.0
49757.0,STARLINK-3197,PAYLOAD,2023-11-09 19:50:49,15.08851164,0.0001848,53.218,358.8052,84.1446,275.9757,0.0015087,0.00023812,0.0,0 STARLINK-3197,1 49757U 21115AK  23313.82696705  .00023812  00000-0  15087-2 0  9996,2 49757  53.2180 358.8052 0001848  84.1446 275.9757 15.08851164108338,6917.846,95.437,540.99,538.433,0.0
49757.0,STARLINK-3197,PAYLOAD,2023-11-09 23:01:36,15.08847579,0.0001691,53.2181,358.2149,108.146,251.9716,0.00047017,7.204e-05,0.0,0 STARLINK-3197,1 49757U 21115AK  23313.95944583  .00007204  00000-0  47017-3 0  9996,2 49757  53.2181 358.2149 0001691 108.1460 251.9716 15.08847579108355,6917.857,95.437,540.892,538.552,0.0
49757.0,STARLINK-3197,PAYLOAD,2023-11-10 10:09:18,15.08834662,0.0001531,53.2182,356.1322,108.9767,251.1391,-0.00021699,-3.739e-05,0.0,0 STARLINK-3197,1 49757U 21115AK  23314.42312918 -.00003739  00000-0 -21699-3 0  9999,2 49757  53.2182 356.1322 0001531 108.9767 251.1391 15.08834662108425,6917.897,95.438,540.821,538.703,0.0
49757.0,STARLINK-3197,PAYLOAD,2023-11-10 19:41:37,15.08842979,0.0001326,53.2175,354.3461,91.8009,268.3135,7.3077e-05,8.75e-06,0.0,0 STARLINK-3197,1 49757U 21115AK  23314.82056886  .00000875  00000-0  73077-4 0  9996,2 49757  53.2175 354.3461 0001326  91.8009 268.3135 15.08842979107371,6917.871,95.437,540.654,538.819,0.0
49757.0,STARLINK-3197,PAYLOAD,2023-11-11 11:35:28,15.08846848,0.0001364,53.217,351.3724,91.2268,268.888,0.0003662,5.546e-05,0.0,0 STARLINK-3197,1 49757U 21115AK  23315.48296978  .00005546  00000-0  36620-3 0  9999,2 49757  53.2170 351.3724 0001364  91.2268 268.8880 15.08846848108583,6917.859,95.437,540.668,538.781,0.0
